{
  "type": "FeatureCollection",
  "features": [
    {
      "type": "Feature",
      "properties": {
        "norad_id": 36451,
        "name": "COSMOS 2251 DEB",
        "group": "cosmos-2251-debris",
        "lat": 41.606173261371694,
        "lon": -21.729043313842574,
        "alt_km": 852.3914457784967,
        "timestamp": "2025-12-19T06:59:44.304057+00:00",
        "meta_object_name": "COSMOS 2251 DEB",
        "meta_object_id": "1993-036BBA",
        "meta_epoch": "2025-12-17T15:51:47.903904",
        "meta_mean_motion": 14.18761243,
        "meta_eccentricity": 0.01833733,
        "meta_inclination": 73.9538,
        "meta_ra_of_asc_node": 326.3887,
        "meta_arg_of_pericenter": 149.6881,
        "meta_mean_anomaly": 211.5024,
        "meta_ephemeris_type": 0,
        "meta_classification_type": "U",
        "meta_norad_cat_id": 36451,
        "meta_element_set_no": 999,
        "meta_rev_at_epoch": 84295,
        "meta_bstar": 0.0004725236,
        "meta_mean_motion_dot": 1.135e-05,
        "meta_mean_motion_ddot": 0,
        "tle_line1": "1 36451U 93036BBA 25351.66097111  .00001135  00000+0  47252-3 0  9999",
        "tle_line2": "2 36451  73.9538 326.3887 0183373 149.6881 211.5024 14.18761243842955"
      },
      "geometry": {
        "type": "Point",
        "coordinates": [
          -21.729043313842574,
          41.606173261371694
        ]
      }
    },
    {
      "type": "Feature",
      "properties": {
        "norad_id": 36453,
        "name": "COSMOS 2251 DEB",
        "group": "cosmos-2251-debris",
        "lat": 17.061050271488835,
        "lon": 145.02533789207936,
        "alt_km": 671.2817106301827,
        "timestamp": "2025-12-19T06:59:44.304068+00:00",
        "meta_object_name": "COSMOS 2251 DEB",
        "meta_object_id": "1993-036BBC",
        "meta_epoch": "2025-12-18T09:33:51.275232",
        "meta_mean_motion": 14.52645427,
        "meta_eccentricity": 0.00705018,
        "meta_inclination": 73.9232,
        "meta_ra_of_asc_node": 141.6428,
        "meta_arg_of_pericenter": 43.415,
        "meta_mean_anomaly": 346.844,
        "meta_ephemeris_type": 0,
        "meta_classification_type": "U",
        "meta_norad_cat_id": 36453,
        "meta_element_set_no": 999,
        "meta_rev_at_epoch": 84550,
        "meta_bstar": 0.00066418144,
        "meta_mean_motion_dot": 2.781e-05,
        "meta_mean_motion_ddot": 0,
        "tle_line1": "1 36453U 93036BBC 25352.39851013  .00002781  00000+0  66418-3 0  9994",
        "tle_line2": "2 36453  73.9232 141.6428 0070501  43.4150 346.8440 14.52645427845506"
      },
      "geometry": {
        "type": "Point",
        "coordinates": [
          145.02533789207936,
          17.061050271488835
        ]
      }
    },
    {
      "type": "Feature",
      "properties": {
        "norad_id": 36459,
        "name": "COSMOS 2251 DEB",
        "group": "cosmos-2251-debris",
        "lat": 36.4201083560557,
        "lon": 0.14585152030892212,
        "alt_km": 741.5184572554945,
        "timestamp": "2025-12-19T06:59:44.304080+00:00",
        "meta_object_name": "COSMOS 2251 DEB",
        "meta_object_id": "1993-036BBJ",
        "meta_epoch": "2025-12-15T06:52:40.994112",
        "meta_mean_motion": 14.2642949,
        "meta_eccentricity": 0.01133967,
        "meta_inclination": 74.0484,
        "meta_ra_of_asc_node": 355.1955,
        "meta_arg_of_pericenter": 90.2624,
        "meta_mean_anomaly": 271.1518,
        "meta_ephemeris_type": 0,
        "meta_classification_type": "U",
        "meta_norad_cat_id": 36459,
        "meta_element_set_no": 999,
        "meta_rev_at_epoch": 7918,
        "meta_bstar": 0.0010918207,
        "meta_mean_motion_dot": 2.788e-05,
        "meta_mean_motion_ddot": 0,
        "tle_line1": "1 36459U 93036BBJ 25349.28658558  .00002788  00000+0  10918-2 0  9993",
        "tle_line2": "2 36459  74.0484 355.1955 0113396  90.2624 271.1518 14.26429490 79186"
      },
      "geometry": {
        "type": "Point",
        "coordinates": [
          0.14585152030892212,
          36.4201083560557
        ]
      }
    },
    {
      "type": "Feature",
      "properties": {
        "norad_id": 36470,
        "name": "COSMOS 2251 DEB",
        "group": "cosmos-2251-debris",
        "lat": -14.316710029949645,
        "lon": 65.02028820697528,
        "alt_km": 556.3052087638998,
        "timestamp": "2025-12-19T06:59:44.304091+00:00",
        "meta_object_name": "COSMOS 2251 DEB",
        "meta_object_id": "1993-036BBV",
        "meta_epoch": "2025-12-15T00:13:00.014016",
        "meta_mean_motion": 15.07582269,
        "meta_eccentricity": 0.00222568,
        "meta_inclination": 73.8449,
        "meta_ra_of_asc_node": 249.6845,
        "meta_arg_of_pericenter": 78.1368,
        "meta_mean_anomaly": 282.2316,
        "meta_ephemeris_type": 0,
        "meta_classification_type": "U",
        "meta_norad_cat_id": 36470,
        "meta_element_set_no": 999,
        "meta_rev_at_epoch": 66128,
        "meta_bstar": 0.0018721064,
        "meta_mean_motion_dot": 0.0002872,
        "meta_mean_motion_ddot": 0,
        "tle_line1": "1 36470U 93036BBV 25349.00902794  .00028720  00000+0  18721-2 0  9994",
        "tle_line2": "2 36470  73.8449 249.6845 0022256  78.1368 282.2316 15.07582269661287"
      },
      "geometry": {
        "type": "Point",
        "coordinates": [
          65.02028820697528,
          -14.316710029949645
        ]
      }
    },
    {
      "type": "Feature",
      "properties": {
        "norad_id": 36528,
        "name": "COSMOS 2251 DEB",
        "group": "cosmos-2251-debris",
        "lat": -66.99110035370796,
        "lon": -4.266728717747392,
        "alt_km": 776.9815104944537,
        "timestamp": "2025-12-19T06:59:44.304101+00:00",
        "meta_object_name": "COSMOS 2251 DEB",
        "meta_object_id": "1993-036BCN",
        "meta_epoch": "2025-12-14T16:44:10.040352",
        "meta_mean_motion": 14.30658136,
        "meta_eccentricity": 0.00847741,
        "meta_inclination": 74.0159,
        "meta_ra_of_asc_node": 141.651,
        "meta_arg_of_pericenter": 190.7529,
        "meta_mean_anomaly": 169.1813,
        "meta_ephemeris_type": 0,
        "meta_classification_type": "U",
        "meta_norad_cat_id": 36528,
        "meta_element_set_no": 999,
        "meta_rev_at_epoch": 64455,
        "meta_bstar": 0.0012089622,
        "meta_mean_motion_dot": 3.261e-05,
        "meta_mean_motion_ddot": 0,
        "tle_line1": "1 36528U 93036BCN 25348.69733843  .00003261  00000+0  12090-2 0  9995",
        "tle_line2": "2 36528  74.0159 141.6510 0084774 190.7529 169.1813 14.30658136644553"
      },
      "geometry": {
        "type": "Point",
        "coordinates": [
          -4.266728717747392,
          -66.99110035370796
        ]
      }
    },
    {
      "type": "Feature",
      "properties": {
        "norad_id": 36533,
        "name": "COSMOS 2251 DEB",
        "group": "cosmos-2251-debris",
        "lat": 36.93467824019883,
        "lon": -89.93786375939627,
        "alt_km": 734.5145299774713,
        "timestamp": "2025-12-19T06:59:44.304111+00:00",
        "meta_object_name": "COSMOS 2251 DEB",
        "meta_object_id": "1993-036BCT",
        "meta_epoch": "2025-12-18T15:26:14.455968",
        "meta_mean_motion": 14.498376,
        "meta_eccentricity": 0.00491095,
        "meta_inclination": 74.0122,
        "meta_ra_of_asc_node": 103.7273,
        "meta_arg_of_pericenter": 251.8091,
        "meta_mean_anomaly": 107.772,
        "meta_ephemeris_type": 0,
        "meta_classification_type": "U",
        "meta_norad_cat_id": 36533,
        "meta_element_set_no": 999,
        "meta_rev_at_epoch": 84570,
        "meta_bstar": 0.00037617792,
        "meta_mean_motion_dot": 1.445e-05,
        "meta_mean_motion_ddot": 0,
        "tle_line1": "1 36533U 93036BCT 25352.64322287  .00001445  00000+0  37618-3 0  9993",
        "tle_line2": "2 36533  74.0122 103.7273 0049109 251.8091 107.7720 14.49837600845700"
      },
      "geometry": {
        "type": "Point",
        "coordinates": [
          -89.93786375939627,
          36.93467824019883
        ]
      }
    },
    {
      "type": "Feature",
      "properties": {
        "norad_id": 36539,
        "name": "COSMOS 2251 DEB",
        "group": "cosmos-2251-debris",
        "lat": -25.89847197890349,
        "lon": -129.32182396718346,
        "alt_km": 682.7987040594126,
        "timestamp": "2025-12-19T06:59:44.304121+00:00",
        "meta_object_name": "COSMOS 2251 DEB",
        "meta_object_id": "1993-036BCZ",
        "meta_epoch": "2025-12-18T13:35:53.739744",
        "meta_mean_motion": 14.59336837,
        "meta_eccentricity": 0.00268254,
        "meta_inclination": 74.0238,
        "meta_ra_of_asc_node": 44.0646,
        "meta_arg_of_pericenter": 188.3183,
        "meta_mean_anomaly": 171.7542,
        "meta_ephemeris_type": 0,
        "meta_classification_type": "U",
        "meta_norad_cat_id": 36539,
        "meta_element_set_no": 999,
        "meta_rev_at_epoch": 84032,
        "meta_bstar": 0.00046364117,
        "meta_mean_motion_dot": 2.174e-05,
        "meta_mean_motion_ddot": 0,
        "tle_line1": "1 36539U 93036BCZ 25352.56659421  .00002174  00000+0  46364-3 0  9991",
        "tle_line2": "2 36539  74.0238  44.0646 0026825 188.3183 171.7542 14.59336837840324"
      },
      "geometry": {
        "type": "Point",
        "coordinates": [
          -129.32182396718346,
          -25.89847197890349
        ]
      }
    }
  ]
}